[{"OBJECT_NAME":"HULIANWANG DIGUI-16","OBJECT_ID":"2025-030F","EPOCH":"2026-03-09T21:09:15.218496","MEAN_MOTION":13.2933874,"ECCENTRICITY":8.475e-5,"INCLINATION":50.0034,"RA_OF_ASC_NODE":231.7718,"ARG_OF_PERICENTER":168.3823,"MEAN_ANOMALY":191.7068,"EPHEMERIS_TYPE":0,"CLASSIFICATION_TYPE":"U","NORAD_CAT_ID":62976,"ELEMENT_SET_NO":999,"REV_AT_EPOCH":5265,"BSTAR":0.0001072585,"MEAN_MOTION_DOT":-7.4e-7,"MEAN_MOTION_DDOT":0},{"OBJECT_NAME":"THORAD AGENA D DEB","OBJECT_ID":"1970-025NW","EPOCH":"2026-03-09T10:31:02.653824","MEAN_MOTION":12.6727104,"ECCENTRICITY":0.05084211,"INCLINATION":100.886,"RA_OF_ASC_NODE":244.0506,"ARG_OF_PERICENTER":252.7067,"MEAN_ANOMALY":101.7799,"EPHEMERIS_TYPE":0,"CLASSIFICATION_TYPE":"U","NORAD_CAT_ID":14478,"ELEMENT_SET_NO":999,"REV_AT_EPOCH":59647,"BSTAR":0.018685651,"MEAN_MOTION_DOT":5.92e-5,"MEAN_MOTION_DDOT":0}]
